[{"OBJECT_NAME":"KUIPER-00103","OBJECT_ID":"2025-171K","EPOCH":"2026-03-09T11:52:55.185888","MEAN_MOTION":14.799441,"ECCENTRICITY":0.00014863,"INCLINATION":51.8976,"RA_OF_ASC_NODE":171.4297,"ARG_OF_PERICENTER":136.3523,"MEAN_ANOMALY":223.7557,"EPHEMERIS_TYPE":0,"CLASSIFICATION_TYPE":"U","NORAD_CAT_ID":65141,"ELEMENT_SET_NO":999,"REV_AT_EPOCH":3268,"BSTAR":0.0006573061,"MEAN_MOTION_DOT":4.794e-5,"MEAN_MOTION_DDOT":0},{"OBJECT_NAME":"CZ-6A DEB","OBJECT_ID":"2024-140JV","EPOCH":"2026-03-09T12:42:13.616064","MEAN_MOTION":14.57005514,"ECCENTRICITY":0.01088917,"INCLINATION":88.9372,"RA_OF_ASC_NODE":277.8319,"ARG_OF_PERICENTER":255.3693,"MEAN_ANOMALY":103.5425,"EPHEMERIS_TYPE":0,"CLASSIFICATION_TYPE":"U","NORAD_CAT_ID":60866,"ELEMENT_SET_NO":999,"REV_AT_EPOCH":8303,"BSTAR":0.00063879028,"MEAN_MOTION_DOT":3.13e-5,"MEAN_MOTION_DDOT":0}]
